OBJECT_NAME,OBJECT_ID,EPOCH,MEAN_MOTION,ECCENTRICITY,INCLINATION,RA_OF_ASC_NODE,ARG_OF_PERICENTER,MEAN_ANOMALY,EPHEMERIS_TYPE,CLASSIFICATION_TYPE,NORAD_CAT_ID,ELEMENT_SET_NO,REV_AT_EPOCH,BSTAR,MEAN_MOTION_DOT,MEAN_MOTION_DDOT
ORBCOMM FM06,1997-084G,2026-06-26T14:14:58.423200,14.47584566,.00002037,45.0146,7.4281,19.8978,22.8163,0,U,25118,999,49575,.35469129E-3,.1173E-4,0
ORBCOMM FM04,1998-007C,2026-06-26T17:32:13.975584,14.35757024,.0041603,107.9627,189.0615,308.3718,51.3689,0,U,25159,999,47796,.29812E-3,.738E-5,0
ORBCOMM FM19,1998-046C,2026-06-26T08:56:04.483104,14.39508729,.0004366,44.9920,199.9005,319.7927,54.6077,0,U,25415,999,45810,.25508E-3,.66E-5,0
ORBCOMM FM20,1998-046D,2026-06-26T09:23:39.048288,14.38076067,.0002497,44.9922,207.8339,281.0043,79.0524,0,U,25416,999,45811,.1992E-3,.467E-5,0
ORBCOMM FM27,1998-053G,2026-06-26T15:04:52.268736,14.39157684,.0001847,45.0059,290.5114,228.9736,131.0954,0,U,25481,999,45159,.29092E-3,.766E-5,0
ORBCOMM FM32,1999-065C,2026-06-26T04:31:19.593408,14.37141283,.00042797,45.0140,130.6321,88.1459,271.9879,0,U,25982,999,38838,.25274169E-3,.616E-5,0
ORBCOMM FM109,2014-040A,2026-06-26T14:49:58.984320,14.58854922,.0001974,47.0039,46.8982,271.3333,88.7326,0,U,40086,999,63572,.1246E-3,.418E-5,0
ORBCOMM FM110,2015-081D,2026-06-26T16:36:20.232576,14.58893336,.0002613,47.0031,316.5018,132.8455,227.2650,0,U,41182,999,55901,.16101E-3,.59E-5,0
ORBCOMM FM118,2015-081E,2026-06-26T15:47:05.033760,14.58886957,.0002301,47.0054,316.9968,82.6557,277.4590,0,U,41183,999,55911,.11636E-3,.379E-5,0
ORBCOMM FM112,2015-081F,2026-06-26T12:36:09.091008,14.58913881,.0004102,46.9976,226.0906,254.9031,105.1401,0,U,41184,999,56031,.10883E-3,.343E-5,0
ORBCOMM FM113,2015-081G,2026-06-26T10:24:18.606816,14.58866013,.0002586,46.9993,226.9043,256.4243,103.6355,0,U,41185,999,56028,.95347E-4,.279E-5,0
ORBCOMM FM108,2015-081J,2026-06-26T14:25:52.824576,14.58884724,.0003172,47.0041,137.6869,256.8834,103.1698,0,U,41187,999,56145,.1529E-3,.552E-5,0
ORBCOMM FM117,2015-081K,2026-06-26T13:36:18.639360,14.58871605,.0003648,47.0000,136.4805,260.3036,99.7438,0,U,41188,999,56149,.9733E-4,.289E-5,0
ORBCOMM FM116,2015-081L,2026-06-26T09:50:43.924704,14.58893255,.0000687,47.0009,227.0123,156.2927,203.7991,0,U,41189,999,56028,.11934E-3,.393E-5,0
